[{"OBJECT_NAME":"STARLINK-31569","OBJECT_ID":"2024-097Y","EPOCH":"2026-03-09T13:02:26.112192","MEAN_MOTION":15.27575028,"ECCENTRICITY":9.71e-5,"INCLINATION":42.9989,"RA_OF_ASC_NODE":275.2507,"ARG_OF_PERICENTER":265.8259,"MEAN_ANOMALY":94.2482,"EPHEMERIS_TYPE":0,"CLASSIFICATION_TYPE":"U","NORAD_CAT_ID":59857,"ELEMENT_SET_NO":999,"REV_AT_EPOCH":10189,"BSTAR":-8.152921e-6,"MEAN_MOTION_DOT":-4.86e-6,"MEAN_MOTION_DDOT":0},{"OBJECT_NAME":"SCS-01 G","OBJECT_ID":"2025-100G","EPOCH":"2026-03-09T22:06:35.300160","MEAN_MOTION":15.25626619,"ECCENTRICITY":0.00115239,"INCLINATION":97.3761,"RA_OF_ASC_NODE":145.2582,"ARG_OF_PERICENTER":298.6971,"MEAN_ANOMALY":61.3108,"EPHEMERIS_TYPE":0,"CLASSIFICATION_TYPE":"U","NORAD_CAT_ID":63988,"ELEMENT_SET_NO":999,"REV_AT_EPOCH":4562,"BSTAR":0.00025501168,"MEAN_MOTION_DOT":6.423e-5,"MEAN_MOTION_DDOT":0}]
